HST                     
1 20580U 90037B   26068.15977042  .00009063  00000+0  30023-3 0  9999
2 20580  28.4717  43.6133 0001837 120.9992 239.0785 15.29473555773239
STARLINK-30898          
1 58387U 23178P   26068.21598976  .00003240  00000+0  12139-3 0  9998
2 58387  53.1618   3.5166 0000935 101.4769 258.6337 15.30219296129816
